[{"OBJECT_NAME":"NANOSATC-BR1","OBJECT_ID":"2014-033Q","EPOCH":"2026-03-09T23:35:03.168384","MEAN_MOTION":15.28136801,"ECCENTRICITY":0.00046435,"INCLINATION":98.0845,"RA_OF_ASC_NODE":92.7804,"ARG_OF_PERICENTER":147.6715,"MEAN_ANOMALY":212.4808,"EPHEMERIS_TYPE":0,"CLASSIFICATION_TYPE":"U","NORAD_CAT_ID":40024,"ELEMENT_SET_NO":999,"REV_AT_EPOCH":63881,"BSTAR":0.00074295057,"MEAN_MOTION_DOT":0.00020336,"MEAN_MOTION_DDOT":0},{"OBJECT_NAME":"STARLINK-34031","OBJECT_ID":"2025-095Y","EPOCH":"2026-03-09T08:11:45.127392","MEAN_MOTION":15.27590409,"ECCENTRICITY":0.00025574,"INCLINATION":43.0013,"RA_OF_ASC_NODE":178.2621,"ARG_OF_PERICENTER":285.2493,"MEAN_ANOMALY":74.8075,"EPHEMERIS_TYPE":0,"CLASSIFICATION_TYPE":"U","NORAD_CAT_ID":63912,"ELEMENT_SET_NO":999,"REV_AT_EPOCH":4772,"BSTAR":0.0013314427,"MEAN_MOTION_DOT":0.00036571,"MEAN_MOTION_DDOT":0}]
